[{"OBJECT_NAME":"STARLINK-4194","OBJECT_ID":"2022-076Q","EPOCH":"2026-03-09T08:35:47.336928","MEAN_MOTION":15.08836645,"ECCENTRICITY":0.000135,"INCLINATION":53.2168,"RA_OF_ASC_NODE":95.6096,"ARG_OF_PERICENTER":100.9151,"MEAN_ANOMALY":259.1993,"EPHEMERIS_TYPE":0,"CLASSIFICATION_TYPE":"U","NORAD_CAT_ID":53000,"ELEMENT_SET_NO":999,"REV_AT_EPOCH":20279,"BSTAR":-2.0275785e-5,"MEAN_MOTION_DOT":-6.11e-6,"MEAN_MOTION_DDOT":0},{"OBJECT_NAME":"INTERCOSMOS 25","OBJECT_ID":"1991-086A","EPOCH":"2026-03-09T17:46:01.385184","MEAN_MOTION":12.11998887,"ECCENTRICITY":0.14869778,"INCLINATION":82.6046,"RA_OF_ASC_NODE":309.9782,"ARG_OF_PERICENTER":116.8223,"MEAN_ANOMALY":259.2563,"EPHEMERIS_TYPE":0,"CLASSIFICATION_TYPE":"U","NORAD_CAT_ID":21819,"ELEMENT_SET_NO":999,"REV_AT_EPOCH":49669,"BSTAR":0.00031680054,"MEAN_MOTION_DOT":1.652e-5,"MEAN_MOTION_DDOT":0}]
